SCD 1                   
1 22490U 93009B   26165.62533624  .00000369  00000+0  49930-4 0  9995
2 22490  24.9680 223.3964 0042141 110.7073  23.6278 14.46118084760747
TECHSAT 1B (GO-32)      
1 25397U 98043D   26165.95709969  .00000038  00000+0  36595-4 0  9996
2 25397  99.0066 158.6595 0000936 168.0137 192.1063 14.24428011451011
SCD 2                   
1 25504U 98060A   26166.08713446  .00000367  00000+0  51703-4 0  9998
2 25504  24.9950  85.1081 0016977 101.0153 281.8843 14.45525172460023
DLR-TUBSAT              
1 25757U 99029B   26166.22672438  .00000061  00000+0  26896-4 0  9991
2 25757  98.6696 161.6663 0014175   1.2101 358.9126 14.52426415432966
TERRA                   
1 25994U 99068A   26166.23382523  .00000327  00000+0  75511-4 0  9994
2 25994  97.9457 215.8575 0001432 196.7910 207.7502 14.61101637409329
MAROC-TUBSAT            
1 27004U 01056D   26166.11405538 -.00000029  00000+0  20211-4 0  9994
2 27004  99.8080 342.9345 0020265 146.4549 326.2466 13.70262412225902
AQUA                    
1 27424U 02022A   26166.28310406  .00000653  00000+0  13966-3 0  9991
2 27424  98.4277 135.5279 0001176  53.2323  50.9789 14.62155467282992
SHIYAN-1 (SY-1)         
1 28220U 04012A   26166.22635876  .00011255  00000+0  34756-3 0  9992
2 28220  97.8694 244.1669 0005779  39.9058 320.2607 15.33718390210792
AURA                    
1 28376U 04026A   26166.20584548  .00000641  00000+0  13949-3 0  9994
2 28376  98.3417 122.6427 0001232  74.2117 285.9219 14.61326323165924
IRS-P5 (CARTOSAT-1)     
1 28649U 05017A   26166.06503901  .00001269  00000+0  13348-3 0  9996
2 28649  97.5308 189.2257 0002643  82.4469 277.7050 14.91044476143506
SINAH 1                 
1 28893U 05043D   26166.27733832  .00000267  00000+0  60104-4 0  9997
2 28893  98.2857 300.5881 0013151 283.3751  76.5985 14.64156506100241
RESURS-DK 1             
1 29228U 06021A   26166.25057079  .00002190  00000+0  12908-3 0  9992
2 29228  69.9340 344.5658 0006853 293.2634  66.7810 15.13211435102289
ARIRANG-2 (KOMPSAT-2)   
1 29268U 06031A   26166.32355714  .00000358  00000+0  75618-4 0  9994
2 29268  97.8301 350.8603 0015923  79.9803  43.7447 14.64659406 61201
LAPAN-TUBSAT            
1 29709U 07001A   26166.23420635  .00000996  00000+0  12059-3 0  9994
2 29709  98.1335 165.4138 0011692 185.5716 174.5371 14.85951417 50860
HAIYANG-1B              
1 31113U 07010A   26166.18704084  .00000067  00000+0  41371-4 0  9992
2 31113  98.3494 148.1098 0012894 202.4597 157.6023 14.31026416   352
COSMO-SKYMED 1          
1 31598U 07023A   26166.33040065  .00002130  00000+0  18989-3 0  9993
2 31598  97.8839 358.1706 0001166  98.8041 261.3312 14.97090735 29516
TERRASAR-X              
1 31698U 07026A   26165.55699353  .00000380  00000+0  21289-4 0  9993
2 31698  97.4461 173.3010 0001800  95.8158 264.3281 15.19148207 52821
WORLDVIEW-1 (WV-1)      
1 32060U 07041A   26166.32263604  .00004797  00000+0  19950-3 0  9993
2 32060  97.3878 286.0927 0002430  26.6107 333.5254 15.24248852 42596
YAOGAN-3                
1 32289U 07055A   26166.31510179  .00002848  00000+0  29535-3 0  9997
2 32289  97.8155 196.2115 0002027  84.3919 275.7530 14.90779697  5598
COSMO-SKYMED 2          
1 32376U 07059A   26166.27075110  .00000340  00000+0  49267-4 0  9994
2 32376  97.8886 349.8965 0001377  86.5474 273.5897 14.82153589  1722
RADARSAT-2              
1 32382U 07061A   26166.28854017  .00000177  00000+0  85390-4 0  9991
2 32382  98.5772 173.2478 0001310  83.1590 276.9741 14.29981712965685
CARTOSAT-2A             
1 32783U 08021A   26166.28778760  .00000546  00000+0  80204-4 0  9992
2 32783  97.7637 215.0611 0013094 114.3594 245.8987 14.79235692978526
HUANJING 1A (HJ-1A)     
1 33320U 08041A   26166.27834690  .00001287  00000+0  16030-3 0  9994
2 33320  97.6675 152.1905 0019805 140.5482 219.7179 14.83984336958123
HUANJING 1B (HJ-1B)     
1 33321U 08041B   26166.31401350  .00000719  00000+0  93189-4 0  9993
2 33321  97.6511 155.4020 0035842 187.1879 172.8826 14.83313336958138
GEOEYE 1                
1 33331U 08042A   26166.23914612  .00000408  00000+0  85532-4 0  9994
2 33331  98.1236 240.1950 0005459  74.3418 285.8387 14.64724111949863
THEOS                   
1 33396U 08049A   26166.27792130  .00000191  00000+0  10936-3 0  9999
2 33396  98.5577 223.6235 0001218  80.6758 279.4556 14.20133503917698
COSMO-SKYMED 3          
1 33412U 08054A   26166.28393748  .00002801  00000+0  19141-3 0  9994
2 33412  97.8284  24.8233 0014334 274.0878  85.8711 15.06941198956651
YAOGAN-4                
1 33446U 08061A   26166.27813489  .00000839  00000+0  10917-3 0  9998
2 33446  97.9308  99.8025 0015744  78.0863 282.2115 14.83196662945380
GOSAT (IBUKI)           
1 33492U 09002A   26165.54743529  .00001007  00000+0  18613-3 0  9990
2 33492  98.0891 276.6617 0001517  86.4252 273.7126 14.67540145931079
DEIMOS-1                
1 35681U 09041A   26166.28721420  .00000719  00000+0  11337-3 0  9998
2 35681  97.7394 323.5970 0001498 132.8062 227.3274 14.75236917906600
