OBJECT_NAME,OBJECT_ID,EPOCH,MEAN_MOTION,ECCENTRICITY,INCLINATION,RA_OF_ASC_NODE,ARG_OF_PERICENTER,MEAN_ANOMALY,EPHEMERIS_TYPE,CLASSIFICATION_TYPE,NORAD_CAT_ID,ELEMENT_SET_NO,REV_AT_EPOCH,BSTAR,MEAN_MOTION_DOT,MEAN_MOTION_DDOT
SCD 1,1993-009B,2026-06-14T15:00:29.051136,14.46118084,.0042141,24.9680,223.3964,110.7073,23.6278,0,U,22490,999,76074,.49930256E-4,.369E-5,0
TECHSAT 1B (GO-32),1998-043D,2026-06-14T22:58:13.413216,14.24428011,.0000936,99.0066,158.6595,168.0137,192.1063,0,U,25397,999,45101,.36595E-4,.38E-6,0
SCD 2,1998-060A,2026-06-15T02:05:28.417344,14.45525172,.00169771,24.9950,85.1081,101.0153,281.8843,0,U,25504,999,46002,.51703482E-4,.367E-5,0
DLR-TUBSAT,1999-029B,2026-06-15T05:26:28.986432,14.52426415,.0014175,98.6696,161.6663,1.2101,358.9126,0,U,25757,999,43296,.2689625E-4,.61E-6,0
TERRA,1999-068A,2026-06-15T05:36:42.499872,14.61101637,.00014321,97.9457,215.8575,196.7910,207.7502,0,U,25994,999,40932,.75511309E-4,.327E-5,0
MAROC-TUBSAT,2001-056D,2026-06-15T02:44:14.384832,13.70262412,.00202651,99.8080,342.9345,146.4549,326.2466,0,U,27004,999,22590,.20210717E-4,-.29E-6,0
AQUA,2002-022A,2026-06-15T06:47:40.190784,14.62155467,.00011761,98.4277,135.5279,53.2323,50.9789,0,U,27424,999,28299,.13965567E-3,.653E-5,0
SHIYAN-1 (SY-1),2004-012A,2026-06-15T05:25:57.396864,15.33718390,.00057794,97.8694,244.1669,39.9058,320.2607,0,U,28220,999,21079,.34755617E-3,.11255E-3,0
AURA,2004-026A,2026-06-15T04:56:25.049472,14.61326323,.00012326,98.3417,122.6427,74.2117,285.9219,0,U,28376,999,16592,.13948767E-3,.641E-5,0
IRS-P5 (CARTOSAT-1),2005-017A,2026-06-15T01:33:39.370464,14.91044476,.00026432,97.5308,189.2257,82.4469,277.7050,0,U,28649,999,14350,.1334824E-3,.1269E-4,0
SINAH 1,2005-043D,2026-06-15T06:39:22.030848,14.64156506,.00131511,98.2857,300.5881,283.3751,76.5985,0,U,28893,999,10024,.60103937E-4,.267E-5,0
RESURS-DK 1,2006-021A,2026-06-15T06:00:49.316256,15.13211435,.00068536,69.9340,344.5658,293.2634,66.7810,0,U,29228,999,10228,.12907508E-3,.219E-4,0
ARIRANG-2 (KOMPSAT-2),2006-031A,2026-06-15T07:45:55.336896,14.64659406,.00159231,97.8301,350.8603,79.9803,43.7447,0,U,29268,999,6120,.75618312E-4,.358E-5,0
LAPAN-TUBSAT,2007-001A,2026-06-15T05:37:15.428640,14.85951417,.0011692,98.1335,165.4138,185.5716,174.5371,0,U,29709,999,5086,.12059223E-3,.996E-5,0
HAIYANG-1B,2007-010A,2026-06-15T04:29:20.328576,14.31026416,.0012894,98.3494,148.1098,202.4597,157.6023,0,U,31113,999,35,.41371138E-4,.67E-6,0
COSMO-SKYMED 1,2007-023A,2026-06-15T07:55:46.616160,14.97090735,.00011661,97.8839,358.1706,98.8041,261.3312,0,U,31598,999,2951,.18989049E-3,.213E-4,0
TERRASAR-X,2007-026A,2026-06-14T13:22:04.240992,15.19148207,.00018,97.4461,173.3010,95.8158,264.3281,0,U,31698,999,5282,.21289E-4,.38E-5,0
WORLDVIEW-1 (WV-1),2007-041A,2026-06-15T07:44:35.753856,15.24248852,.00024302,97.3878,286.0927,26.6107,333.5254,0,U,32060,999,4259,.19950408E-3,.4797E-4,0
YAOGAN-3,2007-055A,2026-06-15T07:33:44.794656,14.90779697,.00020271,97.8155,196.2115,84.3919,275.7530,0,U,32289,999,559,.29534965E-3,.2848E-4,0
COSMO-SKYMED 2,2007-059A,2026-06-15T06:29:52.895040,14.82153589,.00013775,97.8886,349.8965,86.5474,273.5897,0,U,32376,999,172,.4926702E-4,.34E-5,0
RADARSAT-2,2007-061A,2026-06-15T06:55:29.870688,14.29981712,.00013102,98.5772,173.2478,83.1590,276.9741,0,U,32382,999,96568,.85390273E-4,.177E-5,0
CARTOSAT-2A,2008-021A,2026-06-15T06:54:24.848640,14.79235692,.00130948,97.7637,215.0611,114.3594,245.8987,0,U,32783,999,97852,.80203652E-4,.546E-5,0
HUANJING 1A (HJ-1A),2008-041A,2026-06-15T06:40:49.172160,14.83984336,.00198054,97.6675,152.1905,140.5482,219.7179,0,U,33320,999,95812,.16029624E-3,.1287E-4,0
HUANJING 1B (HJ-1B),2008-041B,2026-06-15T07:32:10.766400,14.83313336,.00358425,97.6511,155.4020,187.1879,172.8826,0,U,33321,999,95813,.9318884E-4,.719E-5,0
GEOEYE 1,2008-042A,2026-06-15T05:44:22.224768,14.64724111,.00054597,98.1236,240.1950,74.3418,285.8387,0,U,33331,999,94986,.85532144E-4,.408E-5,0
THEOS,2008-049A,2026-06-15T06:40:12.400320,14.20133503,.00012184,98.5577,223.6235,80.6758,279.4556,0,U,33396,999,91769,.10935803E-3,.191E-5,0
COSMO-SKYMED 3,2008-054A,2026-06-15T06:48:52.198272,15.06941198,.00143347,97.8284,24.8233,274.0878,85.8711,0,U,33412,999,95665,.19141252E-3,.2801E-4,0
YAOGAN-4,2008-061A,2026-06-15T06:40:30.854496,14.83196662,.00157448,97.9308,99.8025,78.0863,282.2115,0,U,33446,999,94538,.10916879E-3,.839E-5,0
GOSAT (IBUKI),2009-002A,2026-06-14T13:08:18.409056,14.67540145,.0001517,98.0891,276.6617,86.4252,273.7126,0,U,33492,999,93107,.18612578E-3,.1007E-4,0
DEIMOS-1,2009-041A,2026-06-15T06:53:35.306880,14.75236917,.0001498,97.7394,323.5970,132.8062,227.3274,0,U,35681,999,90660,.11336712E-3,.719E-5,0
